[{"OBJECT_NAME":"STARLINK-33693","OBJECT_ID":"2025-065L","EPOCH":"2025-10-12T05:22:46.866720","MEAN_MOTION":15.27603455,"ECCENTRICITY":0.00011132,"INCLINATION":43.0002,"RA_OF_ASC_NODE":225.5687,"ARG_OF_PERICENTER":283.0973,"MEAN_ANOMALY":76.9755,"EPHEMERIS_TYPE":0,"CLASSIFICATION_TYPE":"U","NORAD_CAT_ID":63409,"ELEMENT_SET_NO":999,"REV_AT_EPOCH":3013,"BSTAR":0.0014998014,"MEAN_MOTION_DOT":0.0004127,"MEAN_MOTION_DDOT":0},{"OBJECT_NAME":"STARLINK-33677","OBJECT_ID":"2025-065M","EPOCH":"2025-10-12T05:11:40.329600","MEAN_MOTION":15.27612714,"ECCENTRICITY":0.00018381,"INCLINATION":43.0025,"RA_OF_ASC_NODE":225.5038,"ARG_OF_PERICENTER":278.1613,"MEAN_ANOMALY":81.903,"EPHEMERIS_TYPE":0,"CLASSIFICATION_TYPE":"U","NORAD_CAT_ID":63410,"ELEMENT_SET_NO":999,"REV_AT_EPOCH":3013,"BSTAR":0.0015064665,"MEAN_MOTION_DOT":0.00041468,"MEAN_MOTION_DDOT":0},{"OBJECT_NAME":"STARLINK-33647","OBJECT_ID":"2025-065N","EPOCH":"2025-10-12T03:12:15.875712","MEAN_MOTION":15.27639412,"ECCENTRICITY":7.049e-5,"INCLINATION":42.9991,"RA_OF_ASC_NODE":233.5366,"ARG_OF_PERICENTER":271.1763,"MEAN_ANOMALY":88.9008,"EPHEMERIS_TYPE":0,"CLASSIFICATION_TYPE":"U","NORAD_CAT_ID":63411,"ELEMENT_SET_NO":999,"REV_AT_EPOCH":3003,"BSTAR":0.0014851944,"MEAN_MOTION_DOT":0.00040908,"MEAN_MOTION_DDOT":0},{"OBJECT_NAME":"STARLINK-33645","OBJECT_ID":"2025-065P","EPOCH":"2025-10-12T04:59:52.444032","MEAN_MOTION":15.27574522,"ECCENTRICITY":0.00016983,"INCLINATION":42.9979,"RA_OF_ASC_NODE":228.8338,"ARG_OF_PERICENTER":264.5891,"MEAN_ANOMALY":95.4767,"EPHEMERIS_TYPE":0,"CLASSIFICATION_TYPE":"U","NORAD_CAT_ID":63412,"ELEMENT_SET_NO":999,"REV_AT_EPOCH":3009,"BSTAR":0.0013356079,"MEAN_MOTION_DOT":0.00036668,"MEAN_MOTION_DDOT":0},{"OBJECT_NAME":"STARLINK-33670","OBJECT_ID":"2025-065Q","EPOCH":"2025-10-12T05:06:06.808320","MEAN_MOTION":15.2761626,"ECCENTRICITY":0.00017067,"INCLINATION":43.0026,"RA_OF_ASC_NODE":225.4445,"ARG_OF_PERICENTER":246.8115,"MEAN_ANOMALY":113.2557,"EPHEMERIS_TYPE":0,"CLASSIFICATION_TYPE":"U","NORAD_CAT_ID":63413,"ELEMENT_SET_NO":999,"REV_AT_EPOCH":3013,"BSTAR":0.0023342743,"MEAN_MOTION_DOT":0.00064608,"MEAN_MOTION_DDOT":0},{"OBJECT_NAME":"STARLINK-33644","OBJECT_ID":"2025-065R","EPOCH":"2025-10-12T04:38:33.906336","MEAN_MOTION":15.27622284,"ECCENTRICITY":0.00021696,"INCLINATION":43.0013,"RA_OF_ASC_NODE":226.1434,"ARG_OF_PERICENTER":249.1255,"MEAN_ANOMALY":110.9364,"EPHEMERIS_TYPE":0,"CLASSIFICATION_TYPE":"U","NORAD_CAT_ID":63414,"ELEMENT_SET_NO":999,"REV_AT_EPOCH":3012,"BSTAR":0.0016809159,"MEAN_MOTION_DOT":0.00046345,"MEAN_MOTION_DDOT":0},{"OBJECT_NAME":"STARLINK-33664","OBJECT_ID":"2025-065S","EPOCH":"2025-10-12T05:17:12.901344","MEAN_MOTION":15.27621871,"ECCENTRICITY":0.00014821,"INCLINATION":43.0021,"RA_OF_ASC_NODE":225.4962,"ARG_OF_PERICENTER":279.003,"MEAN_ANOMALY":81.0653,"EPHEMERIS_TYPE":0,"CLASSIFICATION_TYPE":"U","NORAD_CAT_ID":63415,"ELEMENT_SET_NO":999,"REV_AT_EPOCH":3013,"BSTAR":0.0018331293,"MEAN_MOTION_DOT":0.00050593,"MEAN_MOTION_DDOT":0},{"OBJECT_NAME":"STARLINK-33649","OBJECT_ID":"2025-065T","EPOCH":"2025-10-12T04:58:42.568032","MEAN_MOTION":15.2760321,"ECCENTRICITY":0.00014924,"INCLINATION":42.9983,"RA_OF_ASC_NODE":225.382,"ARG_OF_PERICENTER":254.1917,"MEAN_ANOMALY":105.877,"EPHEMERIS_TYPE":0,"CLASSIFICATION_TYPE":"U","NORAD_CAT_ID":63416,"ELEMENT_SET_NO":999,"REV_AT_EPOCH":3013,"BSTAR":0.0013390548,"MEAN_MOTION_DOT":0.00036796,"MEAN_MOTION_DDOT":0},{"OBJECT_NAME":"STARLINK-33535","OBJECT_ID":"2025-065U","EPOCH":"2025-10-11T21:24:34.947360","MEAN_MOTION":15.27595956,"ECCENTRICITY":0.00012523,"INCLINATION":43.0003,"RA_OF_ASC_NODE":227.3057,"ARG_OF_PERICENTER":279.7084,"MEAN_ANOMALY":80.3627,"EPHEMERIS_TYPE":0,"CLASSIFICATION_TYPE":"U","NORAD_CAT_ID":63417,"ELEMENT_SET_NO":999,"REV_AT_EPOCH":3008,"BSTAR":0.00062586714,"MEAN_MOTION_DOT":0.00017008,"MEAN_MOTION_DDOT":0},{"OBJECT_NAME":"STARLINK-33703","OBJECT_ID":"2025-065V","EPOCH":"2025-10-12T04:10:48.844416","MEAN_MOTION":15.276128,"ECCENTRICITY":0.00016,"INCLINATION":43.0026,"RA_OF_ASC_NODE":226.0056,"ARG_OF_PERICENTER":248.6135,"MEAN_ANOMALY":111.4546,"EPHEMERIS_TYPE":0,"CLASSIFICATION_TYPE":"U","NORAD_CAT_ID":63418,"ELEMENT_SET_NO":999,"REV_AT_EPOCH":3012,"BSTAR":0.0015779615,"MEAN_MOTION_DOT":0.0004346,"MEAN_MOTION_DDOT":0},{"OBJECT_NAME":"STARLINK-33709","OBJECT_ID":"2025-065W","EPOCH":"2025-10-12T05:50:31.059456","MEAN_MOTION":15.27618917,"ECCENTRICITY":0.00017256,"INCLINATION":43.0032,"RA_OF_ASC_NODE":225.6639,"ARG_OF_PERICENTER":284.7689,"MEAN_ANOMALY":75.2971,"EPHEMERIS_TYPE":0,"CLASSIFICATION_TYPE":"U","NORAD_CAT_ID":63419,"ELEMENT_SET_NO":999,"REV_AT_EPOCH":3013,"BSTAR":0.0009124725,"MEAN_MOTION_DOT":0.00024962,"MEAN_MOTION_DDOT":0},{"OBJECT_NAME":"STARLINK-33698","OBJECT_ID":"2025-065X","EPOCH":"2025-10-12T06:21:45.669888","MEAN_MOTION":15.27600296,"ECCENTRICITY":0.00014475,"INCLINATION":42.9955,"RA_OF_ASC_NODE":224.9439,"ARG_OF_PERICENTER":281.5956,"MEAN_ANOMALY":78.4733,"EPHEMERIS_TYPE":0,"CLASSIFICATION_TYPE":"U","NORAD_CAT_ID":63420,"ELEMENT_SET_NO":999,"REV_AT_EPOCH":3014,"BSTAR":0.0012734763,"MEAN_MOTION_DOT":0.0003497,"MEAN_MOTION_DDOT":0},{"OBJECT_NAME":"STARLINK-33606","OBJECT_ID":"2025-065Y","EPOCH":"2025-10-12T05:13:30.402336","MEAN_MOTION":15.27617163,"ECCENTRICITY":0.00017189,"INCLINATION":43.0066,"RA_OF_ASC_NODE":225.4606,"ARG_OF_PERICENTER":270.1116,"MEAN_ANOMALY":89.9538,"EPHEMERIS_TYPE":0,"CLASSIFICATION_TYPE":"U","NORAD_CAT_ID":63421,"ELEMENT_SET_NO":999,"REV_AT_EPOCH":3013,"BSTAR":0.0013429217,"MEAN_MOTION_DOT":0.00036919,"MEAN_MOTION_DDOT":0},{"OBJECT_NAME":"STARLINK-33686","OBJECT_ID":"2025-065Z","EPOCH":"2025-10-12T05:28:18.958944","MEAN_MOTION":15.27629299,"ECCENTRICITY":0.00013057,"INCLINATION":43.004,"RA_OF_ASC_NODE":225.5357,"ARG_OF_PERICENTER":266.161,"MEAN_ANOMALY":93.9092,"EPHEMERIS_TYPE":0,"CLASSIFICATION_TYPE":"U","NORAD_CAT_ID":63422,"ELEMENT_SET_NO":999,"REV_AT_EPOCH":3013,"BSTAR":0.0017108365,"MEAN_MOTION_DOT":0.00047189,"MEAN_MOTION_DDOT":0},{"OBJECT_NAME":"STARLINK-33675","OBJECT_ID":"2025-065AA","EPOCH":"2025-10-12T04:42:03.396960","MEAN_MOTION":15.27611206,"ECCENTRICITY":0.0001391,"INCLINATION":42.9995,"RA_OF_ASC_NODE":225.2918,"ARG_OF_PERICENTER":243.4867,"MEAN_ANOMALY":116.5842,"EPHEMERIS_TYPE":0,"CLASSIFICATION_TYPE":"U","NORAD_CAT_ID":63423,"ELEMENT_SET_NO":999,"REV_AT_EPOCH":3013,"BSTAR":0.0019186165,"MEAN_MOTION_DOT":0.00052965,"MEAN_MOTION_DDOT":0},{"OBJECT_NAME":"STARLINK-33655","OBJECT_ID":"2025-065AB","EPOCH":"2025-10-12T04:27:27.908352","MEAN_MOTION":15.27632174,"ECCENTRICITY":0.00017082,"INCLINATION":43.0013,"RA_OF_ASC_NODE":226.0741,"ARG_OF_PERICENTER":271.2963,"MEAN_ANOMALY":88.7693,"EPHEMERIS_TYPE":0,"CLASSIFICATION_TYPE":"U","NORAD_CAT_ID":63424,"ELEMENT_SET_NO":999,"REV_AT_EPOCH":3012,"BSTAR":0.0023646792,"MEAN_MOTION_DOT":0.00065493,"MEAN_MOTION_DDOT":0}]
