63409,STARLINK-33693,2025,94.27,-1.0,+,43.0,Active,0,LEO,USA,USA,Unknown,Unknown,Unknown,1 63409U 25065L   25285.22415355  .00041270  00000+0  14998-2 0  9995,2 63409  43.0002 225.5687 0001113 283.0973  76.9755 15.27603455 30130,15.27603455,0.0001113,LEO
63410,STARLINK-33677,2025,94.26,-1.0,+,43.0,Active,0,LEO,USA,USA,Unknown,Unknown,Unknown,1 63410U 25065M   25285.21643900  .00041468  00000+0  15065-2 0  9990,2 63410  43.0025 225.5038 0001838 278.1613  81.9030 15.27612714 30137,15.27612714,0.0001838,LEO
63411,STARLINK-33647,2025,94.26,-1.0,+,43.0,Active,0,LEO,USA,USA,Unknown,Unknown,Unknown,1 63411U 25065N   25285.13351708  .00040908  00000+0  14852-2 0  9995,2 63411  42.9991 233.5366 0000704 271.1763  88.9008 15.27639412 30036,15.27639412,7.04e-05,LEO
63412,STARLINK-33645,2025,94.26,-1.0,+,43.0,Active,0,LEO,USA,USA,Unknown,Unknown,Unknown,1 63412U 25065P   25285.20824588  .00036668  00000+0  13356-2 0  9991,2 63412  42.9979 228.8338 0001698 264.5891  95.4767 15.27574522 30091,15.27574522,0.0001698,LEO
63413,STARLINK-33670,2025,94.27,-1.0,+,43.0,Active,0,LEO,USA,USA,Unknown,Unknown,Unknown,1 63413U 25065Q   25285.21257880  .00064608  00000+0  23343-2 0  9990,2 63413  43.0026 225.4445 0001706 246.8115 113.2557 15.27616260 30138,15.2761626,0.0001706,LEO
63414,STARLINK-33644,2025,94.26,-1.0,+,43.0,Active,0,LEO,USA,USA,Unknown,Unknown,Unknown,1 63414U 25065R   25285.19344799  .00046345  00000+0  16809-2 0  9991,2 63414  43.0013 226.1434 0002169 249.1255 110.9364 15.27622284 30128,15.27622284,0.0002169,LEO
63415,STARLINK-33664,2025,94.27,-1.0,+,43.0,Active,0,LEO,USA,USA,Unknown,Unknown,Unknown,1 63415U 25065S   25285.22028821  .00050593  00000+0  18331-2 0  9993,2 63415  43.0021 225.4962 0001482 279.0030  81.0653 15.27621871 30137,15.27621871,0.0001482,LEO
63416,STARLINK-33649,2025,94.27,-1.0,+,43.0,Active,0,LEO,USA,USA,Unknown,Unknown,Unknown,1 63416U 25065T   25285.20743713  .00036796  00000+0  13391-2 0  9996,2 63416  42.9983 225.3820 0001492 254.1917 105.8770 15.27603210 30136,15.2760321,0.0001492,LEO
63417,STARLINK-33535,2025,94.26,-1.0,+,43.0,Active,0,LEO,USA,USA,Unknown,Unknown,Unknown,1 63417U 25065U   25284.89207115  .00017008  00000+0  62587-3 0  9999,2 63417  43.0003 227.3057 0001252 279.7084  80.3627 15.27595956 30087,15.27595956,0.0001252,LEO
63418,STARLINK-33703,2025,94.26,-1.0,+,43.0,Active,0,LEO,USA,USA,Unknown,Unknown,Unknown,1 63418U 25065V   25285.17417644  .00043460  00000+0  15780-2 0  9995,2 63418  43.0026 226.0056 0001600 248.6135 111.4546 15.27612800 30126,15.276128,0.00016,LEO
63419,STARLINK-33709,2025,94.27,-1.0,+,43.0,Active,0,LEO,USA,USA,Unknown,Unknown,Unknown,1 63419U 25065W   25285.24341504  .00024962  00000+0  91247-3 0  9994,2 63419  43.0032 225.6639 0001725 284.7689  75.2971 15.27618917 30134,15.27618917,0.0001725,LEO
63420,STARLINK-33698,2025,94.27,-1.0,+,43.0,Active,0,LEO,USA,USA,Unknown,Unknown,Unknown,1 63420U 25065X   25285.26511192  .00034970  00000+0  12735-2 0  9994,2 63420  42.9955 224.9439 0001447 281.5956  78.4733 15.27600296 30144,15.27600296,0.0001447,LEO
63421,STARLINK-33606,2025,94.26,-1.0,+,43.0,Active,0,LEO,USA,USA,Unknown,Unknown,Unknown,1 63421U 25065Y   25285.21771299  .00036919  00000+0  13429-2 0  9992,2 63421  43.0066 225.4606 0001718 270.1116  89.9538 15.27617163 30135,15.27617163,0.0001718,LEO
63422,STARLINK-33686,2025,94.26,-1.0,+,43.01,Active,0,LEO,USA,USA,Unknown,Unknown,Unknown,1 63422U 25065Z   25285.22799721  .00047189  00000+0  17108-2 0  9993,2 63422  43.0040 225.5357 0001305 266.1610  93.9092 15.27629299 30131,15.27629299,0.0001305,LEO
63423,STARLINK-33675,2025,94.26,-1.0,+,43.0,Active,0,LEO,USA,USA,Unknown,Unknown,Unknown,1 63423U 25065AA  25285.19587265  .00052965  00000+0  19186-2 0  9994,2 63423  42.9995 225.2918 0001391 243.4867 116.5842 15.27611206 30130,15.27611206,0.0001391,LEO
63424,STARLINK-33655,2025,94.26,-1.0,+,43.0,Active,0,LEO,USA,USA,Unknown,Unknown,Unknown,1 63424U 25065AB  25285.18573968  .00065493  00000+0  23647-2 0  9996,2 63424  43.0013 226.0741 0001708 271.2963  88.7693 15.27632174 30125,15.27632174,0.0001708,LEO
